{"type": "FeatureCollection", "features": [ {"type": "Feature", "properties": {"norad_id": 33492, "name": "GOSAT (IBUKI)", "group": "resource", "lat": 35.377049686701284, "lon": -81.946582750893, "alt_km": 666.1716227192155, "timestamp": "2025-12-09T14:52:25.822591+00:00", "meta": {"OBJECT_NAME": "GOSAT (IBUKI)", "OBJECT_ID": "2009-002A", "EPOCH": "2025-12-09T07:40:26.125248", "MEAN_MOTION": 14.67545588, "ECCENTRICITY": 9.522e-05, "INCLINATION": 98.0769, "RA_OF_ASC_NODE": 91.9706, "ARG_OF_PERICENTER": 87.6966, "MEAN_ANOMALY": 272.4348, "EPHEMERIS_TYPE": 0, "CLASSIFICATION_TYPE": "U", "NORAD_CAT_ID": 33492, "ELEMENT_SET_NO": 999, "REV_AT_EPOCH": 90361, "BSTAR": 0.00031398855, "MEAN_MOTION_DOT": 1.733e-05, "MEAN_MOTION_DDOT": 0}, "tle": {"line1": "1 33492U 09002A   25343.31974682  .00001733  00000+0  31399-3 0  9990", "line2": "2 33492  98.0769  91.9706 0000952  87.6966 272.4348 14.67545588903614"}}, "geometry": {"type": "Point", "coordinates": [-81.946582750893, 35.377049686701284]}}, {"type": "Feature", "properties": {"norad_id": 35681, "name": "DEIMOS-1", "group": "resource", "lat": 40.44414165373198, "lon": -28.996871497845923, "alt_km": 641.0913399149449, "timestamp": "2025-12-09T14:52:25.822602+00:00", "meta": {"OBJECT_NAME": "DEIMOS-1", "OBJECT_ID": "2009-041A", "EPOCH": "2025-12-09T07:43:59.514240", "MEAN_MOTION": 14.74943916, "ECCENTRICITY": 0.00027192, "INCLINATION": 97.7146, "RA_OF_ASC_NODE": 144.0844, "ARG_OF_PERICENTER": 84.6164, "MEAN_ANOMALY": 275.5356, "EPHEMERIS_TYPE": 0, "CLASSIFICATION_TYPE": "U", "NORAD_CAT_ID": 35681, "ELEMENT_SET_NO": 999, "REV_AT_EPOCH": 87889, "BSTAR": 0.00015478183, "MEAN_MOTION_DOT": 9.92e-06, "MEAN_MOTION_DDOT": 0}, "tle": {"line1": "1 35681U 09041A   25343.32221660  .00000992  00000+0  15478-3 0  9993", "line2": "2 35681  97.7146 144.0844 0002719  84.6164 275.5356 14.74943916878893"}}, "geometry": {"type": "Point", "coordinates": [-28.996871497845923, 40.44414165373198]}}, {"type": "Feature", "properties": {"norad_id": 35682, "name": "DUBAISAT-1", "group": "resource", "lat": 75.47061890477146, "lon": 81.57985637839016, "alt_km": 641.8949134409722, "timestamp": "2025-12-09T14:52:25.822612+00:00", "meta": {"OBJECT_NAME": "DUBAISAT-1", "OBJECT_ID": "2009-041B", "EPOCH": "2025-12-09T06:22:46.729632", "MEAN_MOTION": 14.74589178, "ECCENTRICITY": 0.00097769, "INCLINATION": 97.979, "RA_OF_ASC_NODE": 113.9969, "ARG_OF_PERICENTER": 326.6122, "MEAN_ANOMALY": 33.4469, "EPHEMERIS_TYPE": 0, "CLASSIFICATION_TYPE": "U", "NORAD_CAT_ID": 35682, "ELEMENT_SET_NO": 999, "REV_AT_EPOCH": 87710, "BSTAR": 0.00037330033, "MEAN_MOTION_DOT": 2.439e-05, "MEAN_MOTION_DDOT": 0}, "tle": {"line1": "1 35682U 09041B   25343.26581863  .00002439  00000+0  37330-3 0  9990", "line2": "2 35682  97.9790 113.9969 0009776 326.6122  33.4469 14.74589178877102"}}, "geometry": {"type": "Point", "coordinates": [81.57985637839016, 75.47061890477146]}}, {"type": "Feature", "properties": {"norad_id": 35931, "name": "OCEANSAT-2", "group": "resource", "lat": 15.787861237535031, "lon": -17.806170632966573, "alt_km": 886.2400861975229, "timestamp": "2025-12-09T14:52:25.822623+00:00", "meta": {"OBJECT_NAME": "OCEANSAT-2", "OBJECT_ID": "2009-051A", "EPOCH": "2025-12-09T07:56:06.678240", "MEAN_MOTION": 13.99625466, "ECCENTRICITY": 0.00163455, "INCLINATION": 98.2225, "RA_OF_ASC_NODE": 344.2771, "ARG_OF_PERICENTER": 53.9479, "MEAN_ANOMALY": 306.3199, "EPHEMERIS_TYPE": 0, "CLASSIFICATION_TYPE": "U", "NORAD_CAT_ID": 35931, "ELEMENT_SET_NO": 999, "REV_AT_EPOCH": 85277, "BSTAR": -6.8287004e-05, "MEAN_MOTION_DOT": -1.37e-06, "MEAN_MOTION_DDOT": 0}, "tle": {"line1": "1 35931U 09051A   25343.33063285 -.00000137  00000+0 -68287-4 0  9990", "line2": "2 35931  98.2225 344.2771 0016345  53.9479 306.3199 13.99625466852776"}}, "geometry": {"type": "Point", "coordinates": [-17.806170632966573, 15.787861237535031]}}, {"type": "Feature", "properties": {"norad_id": 35946, "name": "WORLDVIEW-2 (WV-2)", "group": "resource", "lat": 68.86291294360308, "lon": 32.058801993917506, "alt_km": 755.7354854755013, "timestamp": "2025-12-09T14:52:25.822634+00:00", "meta": {"OBJECT_NAME": "WORLDVIEW-2 (WV-2)", "OBJECT_ID": "2009-055A", "EPOCH": "2025-12-09T07:51:56.318688", "MEAN_MOTION": 14.37650626, "ECCENTRICITY": 0.00053659, "INCLINATION": 98.4763, "RA_OF_ASC_NODE": 54.4595, "ARG_OF_PERICENTER": 75.1504, "MEAN_ANOMALY": 285.0277, "EPHEMERIS_TYPE": 0, "CLASSIFICATION_TYPE": "U", "NORAD_CAT_ID": 35946, "ELEMENT_SET_NO": 999, "REV_AT_EPOCH": 84836, "BSTAR": 0.00013326798, "MEAN_MOTION_DOT": 3.57e-06, "MEAN_MOTION_DDOT": 0}, "tle": {"line1": "1 35946U 09055A   25343.32773517  .00000357  00000+0  13327-3 0  9991", "line2": "2 35946  98.4763  54.4595 0005365  75.1504 285.0277 14.37650626848369"}}, "geometry": {"type": "Point", "coordinates": [32.058801993917506, 68.86291294360308]}}, {"type": "Feature", "properties": {"norad_id": 36036, "name": "SMOS", "group": "resource", "lat": 78.96656176741558, "lon": 119.13363470799904, "alt_km": 751.2128656308669, "timestamp": "2025-12-09T14:52:25.822644+00:00", "meta": {"OBJECT_NAME": "SMOS", "OBJECT_ID": "2009-059A", "EPOCH": "2025-12-09T06:09:02.700000", "MEAN_MOTION": 14.39736912, "ECCENTRICITY": 0.00011102, "INCLINATION": 98.4383, "RA_OF_ASC_NODE": 168.3563, "ARG_OF_PERICENTER": 84.4936, "MEAN_ANOMALY": 275.6379, "EPHEMERIS_TYPE": 0, "CLASSIFICATION_TYPE": "U", "NORAD_CAT_ID": 36036, "ELEMENT_SET_NO": 999, "REV_AT_EPOCH": 84612, "BSTAR": 0.00024324865, "MEAN_MOTION_DOT": 7.19e-06, "MEAN_MOTION_DDOT": 0}, "tle": {"line1": "1 36036U 09059A   25343.25628125  .00000719  00000+0  24325-3 0  9994", "line2": "2 36036  98.4383 168.3563 0001110  84.4936 275.6379 14.39736912846129"}}, "geometry": {"type": "Point", "coordinates": [119.13363470799904, 78.96656176741558]}}, {"type": "Feature", "properties": {"norad_id": 36110, "name": "YAOGAN-7", "group": "resource", "lat": -21.454249798421294, "lon": 42.20729518729257, "alt_km": 641.9275231193205, "timestamp": "2025-12-09T14:52:25.822655+00:00", "meta": {"OBJECT_NAME": "YAOGAN-7", "OBJECT_ID": "2009-069A", "EPOCH": "2025-12-09T05:50:11.994432", "MEAN_MOTION": 14.77724948, "ECCENTRICITY": 0.00234774, "INCLINATION": 98.0303, "RA_OF_ASC_NODE": 225.0126, "ARG_OF_PERICENTER": 293.2001, "MEAN_ANOMALY": 66.6736, "EPHEMERIS_TYPE": 0, "CLASSIFICATION_TYPE": "U", "NORAD_CAT_ID": 36110, "ELEMENT_SET_NO": 999, "REV_AT_EPOCH": 86157, "BSTAR": 0.0001823082, "MEAN_MOTION_DOT": 1.259e-05, "MEAN_MOTION_DDOT": 0}, "tle": {"line1": "1 36110U 09069A   25343.24319438  .00001259  00000+0  18231-3 0  9990", "line2": "2 36110  98.0303 225.0126 0023477 293.2001  66.6736 14.77724948861578"}}, "geometry": {"type": "Point", "coordinates": [42.20729518729257, -21.454249798421294]}}, {"type": "Feature", "properties": {"norad_id": 36605, "name": "TANDEM-X", "group": "resource", "lat": -16.84813617782599, "lon": -8.683591135450708, "alt_km": 513.6597421175584, "timestamp": "2025-12-09T14:52:25.822666+00:00", "meta": {"OBJECT_NAME": "TANDEM-X", "OBJECT_ID": "2010-030A", "EPOCH": "2025-12-08T13:39:18.929376", "MEAN_MOTION": 15.19159019, "ECCENTRICITY": 0.0002067, "INCLINATION": 97.4453, "RA_OF_ASC_NODE": 348.0112, "ARG_OF_PERICENTER": 89.3333, "MEAN_ANOMALY": 270.8138, "EPHEMERIS_TYPE": 0, "CLASSIFICATION_TYPE": "U", "NORAD_CAT_ID": 36605, "ELEMENT_SET_NO": 999, "REV_AT_EPOCH": 85770, "BSTAR": 0.00014235, "MEAN_MOTION_DOT": 2.924e-05, "MEAN_MOTION_DDOT": 0}, "tle": {"line1": "1 36605U 10030A   25342.56896909  .00002924  00000+0  14235-3 0  9996", "line2": "2 36605  97.4453 348.0112 0002067  89.3333 270.8138 15.19159019857704"}}, "geometry": {"type": "Point", "coordinates": [-8.683591135450708, -16.84813617782599]}}, {"type": "Feature", "properties": {"norad_id": 36795, "name": "CARTOSAT-2B", "group": "resource", "lat": 61.113071635061566, "lon": -132.891169776747, "alt_km": 619.4782453866646, "timestamp": "2025-12-09T14:52:25.822676+00:00", "meta": {"OBJECT_NAME": "CARTOSAT-2B", "OBJECT_ID": "2010-035A", "EPOCH": "2025-12-09T07:50:52.755072", "MEAN_MOTION": 14.78782867, "ECCENTRICITY": 0.00129544, "INCLINATION": 97.7852, "RA_OF_ASC_NODE": 32.4683, "ARG_OF_PERICENTER": 87.3964, "MEAN_ANOMALY": 272.873, "EPHEMERIS_TYPE": 0, "CLASSIFICATION_TYPE": "U", "NORAD_CAT_ID": 36795, "ELEMENT_SET_NO": 999, "REV_AT_EPOCH": 83179, "BSTAR": 0.00019367598, "MEAN_MOTION_DOT": 1.375e-05, "MEAN_MOTION_DDOT": 0}, "tle": {"line1": "1 36795U 10035A   25343.32699948  .00001375  00000+0  19368-3 0  9991", "line2": "2 36795  97.7852  32.4683 0012954  87.3964 272.8730 14.78782867831799"}}, "geometry": {"type": "Point", "coordinates": [-132.891169776747, 61.113071635061566]}}, {"type": "Feature", "properties": {"norad_id": 36834, "name": "YAOGAN-10", "group": "resource", "lat": 46.91060056705686, "lon": -167.9849017763847, "alt_km": 610.1808904152122, "timestamp": "2025-12-09T14:52:25.822686+00:00", "meta": {"OBJECT_NAME": "YAOGAN-10", "OBJECT_ID": "2010-038A", "EPOCH": "2025-12-09T08:03:52.155648", "MEAN_MOTION": 14.84583806, "ECCENTRICITY": 0.00013793, "INCLINATION": 97.914, "RA_OF_ASC_NODE": 3.1816, "ARG_OF_PERICENTER": 81.5476, "MEAN_ANOMALY": 335.4291, "EPHEMERIS_TYPE": 0, "CLASSIFICATION_TYPE": "U", "NORAD_CAT_ID": 36834, "ELEMENT_SET_NO": 999, "REV_AT_EPOCH": 82903, "BSTAR": 0.00015586066, "MEAN_MOTION_DOT": 1.262e-05, "MEAN_MOTION_DDOT": 0}, "tle": {"line1": "1 36834U 10038A   25343.33602032  .00001262  00000+0  15586-3 0  9990", "line2": "2 36834  97.9140   3.1816 0001379  81.5476 335.4291 14.84583806829032"}}, "geometry": {"type": "Point", "coordinates": [-167.9849017763847, 46.91060056705686]}}]}